OBJECT_NAME,OBJECT_ID,EPOCH,MEAN_MOTION,ECCENTRICITY,INCLINATION,RA_OF_ASC_NODE,ARG_OF_PERICENTER,MEAN_ANOMALY,EPHEMERIS_TYPE,CLASSIFICATION_TYPE,NORAD_CAT_ID,ELEMENT_SET_NO,REV_AT_EPOCH,BSTAR,MEAN_MOTION_DOT,MEAN_MOTION_DDOT
ONEWEB-0230,2021-045C,2026-06-27T12:12:18.199008,13.15548731,.0001958,87.8994,257.1475,95.5016,264.6338,0,U,48769,999,24602,.16211E-3,.74E-6,0
ONEWEB-0237,2021-045D,2026-06-27T11:56:19.654080,13.15548170,.0001832,87.8995,257.1515,105.8397,254.2935,0,U,48770,999,24574,-.48219E-4,-.5E-7,0
ONEWEB-0235,2021-045E,2026-06-27T11:19:49.286208,13.15549568,.000188,87.9008,257.1431,111.2783,248.8548,0,U,48771,999,24573,-.17035E-3,-.51E-6,0
ONEWEB-0242,2021-045F,2026-06-27T11:10:41.477376,13.15548055,.0001815,87.9010,257.1414,101.2741,258.8594,0,U,48772,999,24577,-.22286E-3,-.71E-6,0
ONEWEB-0241,2021-045G,2026-06-27T10:52:26.303808,13.15550164,.0002135,87.8999,257.1611,112.1307,248.0050,0,U,48773,999,24568,.23183E-4,.22E-6,0
ONEWEB-0243,2021-045H,2026-06-27T11:38:03.873120,13.15549717,.0001498,87.8998,257.1671,104.2362,255.8935,0,U,48774,999,24571,-.27632E-3,-.91E-6,0
ONEWEB-0222,2021-045J,2026-06-27T11:14:06.179712,13.15549924,.0002013,87.9008,257.1388,106.8053,253.3298,0,U,48775,999,24575,-.15671E-3,-.46E-6,0
ONEWEB-0244,2021-045K,2026-06-27T11:51:45.766080,13.15549502,.0001917,87.9011,257.1289,102.8613,257.2731,0,U,48776,999,24632,-.32272E-4,.1E-7,0
ONEWEB-0247,2021-045L,2026-06-27T11:47:12.219360,13.15547992,.0001444,87.8997,257.1603,119.8494,240.2780,0,U,48777,999,24576,-.20385E-3,-.64E-6,0
ONEWEB-0245,2021-045M,2026-06-27T11:40:21.124704,13.15548751,.0002096,87.9007,257.1414,105.2988,254.8374,0,U,48778,999,24573,-.37954E-3,-.13E-5,0
ONEWEB-0229,2021-045N,2026-06-27T11:33:30.149280,13.15549443,.0001864,87.9006,257.1403,100.6207,259.5134,0,U,48779,999,24576,-.42021E-3,-.145E-5,0
ONEWEB-0228,2021-045P,2026-06-27T12:21:37.505088,13.15548473,.0001982,87.9013,257.1268,102.2077,257.9275,0,U,48780,999,24568,.48683E-3,.196E-5,0
ONEWEB-0232,2021-045Q,2026-06-27T11:44:54.724128,13.15547540,.0002091,87.9011,257.1326,101.4816,258.6549,0,U,48781,999,24600,-.80907E-4,-.18E-6,0
ONEWEB-0231,2021-045R,2026-06-27T11:12:57.788064,13.15549884,.0001944,87.9005,257.1494,106.8874,253.2469,0,U,48782,999,24569,-.20329E-3,-.64E-6,0
ONEWEB-0234,2021-045S,2026-06-27T12:07:31.833120,13.15549638,.0002847,87.9003,257.1237,101.2382,258.9069,0,U,48783,999,24583,.20575E-3,.9E-6,0
ONEWEB-0238,2021-045T,2026-06-27T12:07:56.089056,13.15548035,.0002448,87.9008,257.1189,101.5423,258.5982,0,U,48784,999,24573,.28298E-3,.119E-5,0
ONEWEB-0240,2021-045U,2026-06-27T10:49:01.030368,13.15548995,.0002097,87.9010,257.1396,109.2601,250.8756,0,U,48785,999,24575,.29203E-3,.123E-5,0
ONEWEB-0246,2021-045V,2026-06-27T10:41:01.379904,13.15550528,.0001882,87.9008,257.1451,99.9819,260.1524,0,U,48786,999,24562,.2701E-3,.115E-5,0
ONEWEB-0210,2021-045W,2026-06-27T11:54:01.922976,13.15547608,.0001175,87.9007,257.1318,109.6822,250.4435,0,U,48787,999,24567,.14874E-3,.69E-6,0
ONEWEB-0214,2021-045X,2026-06-27T12:06:34.848864,13.15549952,.0001692,87.9008,257.1271,93.3335,266.7989,0,U,48788,999,24564,.21695E-3,.94E-6,0
ONEWEB-0221,2021-045Y,2026-06-27T12:16:51.997152,13.15548749,.0001962,87.9006,257.1343,105.5928,254.5419,0,U,48789,999,24573,.19932E-3,.88E-6,0
ONEWEB-0213,2021-045Z,2026-06-27T12:00:53.466912,13.15547835,.0001807,87.9005,257.1397,106.5814,253.5515,0,U,48790,999,24579,.13191E-3,.62E-6,0
ONEWEB-0212,2021-045AA,2026-06-27T11:27:46.380096,13.15551513,.0002083,87.9009,257.1387,99.9167,260.2199,0,U,48791,999,24578,-.23027E-3,-.74E-6,0
ONEWEB-0227,2021-045AB,2026-06-27T11:26:39.509088,13.15549591,.0002028,87.9007,257.1395,102.7658,257.3699,0,U,48792,999,24573,-.3825E-3,-.131E-5,0
ONEWEB-0226,2021-045AC,2026-06-27T11:17:31.075584,13.15547093,.0001778,87.9003,257.1450,103.4623,256.6706,0,U,48793,999,24570,-.35487E-3,-.121E-5,0
ONEWEB-0224,2021-045AD,2026-06-27T12:14:35.060928,13.15548018,.0002714,87.8998,257.1707,113.8023,246.3392,0,U,48794,999,24563,.38671E-3,.158E-5,0
ONEWEB-0233,2021-045AE,2026-06-27T12:21:12.964032,13.15556669,.0001975,87.8998,257.1772,110.1908,249.9435,0,U,48795,999,24565,.31523E-2,.12E-4,0
ONEWEB-0190,2021-045AF,2026-06-27T12:03:10.264032,13.15547735,.0001662,87.9000,257.1421,119.3124,240.8173,0,U,48796,999,24572,.80116E-4,.43E-6,0
ONEWEB-0236,2021-045AG,2026-06-27T12:28:16.717152,13.15549343,.0002162,87.8997,257.1479,99.2640,260.8735,0,U,48797,999,24561,.25309E-3,.108E-5,0
ONEWEB-0248,2021-045AH,2026-06-27T10:57:00.261792,13.15548472,.0002067,87.9008,257.1451,114.3130,245.8216,0,U,48798,999,24576,-.39039E-4,-.2E-7,0
