ONEWEB-0230             
1 48769U 21045C   26178.50854397  .00000074  00000+0  16211-3 0  9995
2 48769  87.8994 257.1475 0001958  95.5016 264.6338 13.15548731246025
ONEWEB-0237             
1 48770U 21045D   26178.49744970 -.00000005  00000+0 -48219-4 0  9990
2 48770  87.8995 257.1515 0001832 105.8397 254.2935 13.15548170245744
ONEWEB-0235             
1 48771U 21045E   26178.47209822 -.00000051  00000+0 -17035-3 0  9993
2 48771  87.9008 257.1431 0001880 111.2783 248.8548 13.15549568245731
ONEWEB-0242             
1 48772U 21045F   26178.46575784 -.00000071  00000+0 -22286-3 0  9992
2 48772  87.9010 257.1414 0001815 101.2741 258.8594 13.15548055245773
ONEWEB-0241             
1 48773U 21045G   26178.45308222  .00000022  00000+0  23183-4 0  9995
2 48773  87.8999 257.1611 0002135 112.1307 248.0050 13.15550164245685
ONEWEB-0243             
1 48774U 21045H   26178.48476705 -.00000091  00000+0 -27632-3 0  9991
2 48774  87.8998 257.1671 0001498 104.2362 255.8935 13.15549717245719
ONEWEB-0222             
1 48775U 21045J   26178.46812708 -.00000046  00000+0 -15671-3 0  9997
2 48775  87.9008 257.1388 0002013 106.8053 253.3298 13.15549924245756
ONEWEB-0244             
1 48776U 21045K   26178.49427970  .00000001  00000+0 -32272-4 0  9991
2 48776  87.9011 257.1289 0001917 102.8613 257.2731 13.15549502246322
ONEWEB-0247             
1 48777U 21045L   26178.49111365 -.00000064  00000+0 -20385-3 0  9991
2 48777  87.8997 257.1603 0001444 119.8494 240.2780 13.15547992245769
ONEWEB-0245             
1 48778U 21045M   26178.48635561 -.00000130  00000+0 -37954-3 0  9994
2 48778  87.9007 257.1414 0002096 105.2988 254.8374 13.15548751245735
ONEWEB-0229             
1 48779U 21045N   26178.48159895 -.00000145  00000+0 -42021-3 0  9993
2 48779  87.9006 257.1403 0001864 100.6207 259.5134 13.15549443245766
ONEWEB-0228             
1 48780U 21045P   26178.51501742  .00000196  00000+0  48683-3 0  9995
2 48780  87.9013 257.1268 0001982 102.2077 257.9275 13.15548473245680
ONEWEB-0232             
1 48781U 21045Q   26178.48952227 -.00000018  00000+0 -80907-4 0  9991
2 48781  87.9011 257.1326 0002091 101.4816 258.6549 13.15547540246001
ONEWEB-0231             
1 48782U 21045R   26178.46733551 -.00000064  00000+0 -20329-3 0  9999
2 48782  87.9005 257.1494 0001944 106.8874 253.2469 13.15549884245699
ONEWEB-0234             
1 48783U 21045S   26178.50522955  .00000090  00000+0  20575-3 0  9999
2 48783  87.9003 257.1237 0002847 101.2382 258.9069 13.15549638245830
ONEWEB-0238             
1 48784U 21045T   26178.50551029  .00000119  00000+0  28298-3 0  9996
2 48784  87.9008 257.1189 0002448 101.5423 258.5982 13.15548035245737
ONEWEB-0240             
1 48785U 21045U   26178.45070637  .00000123  00000+0  29203-3 0  9994
2 48785  87.9010 257.1396 0002097 109.2601 250.8756 13.15548995245755
ONEWEB-0246             
1 48786U 21045V   26178.44515486  .00000115  00000+0  27010-3 0  9995
2 48786  87.9008 257.1451 0001882  99.9819 260.1524 13.15550528245620
ONEWEB-0210             
1 48787U 21045W   26178.49585559  .00000069  00000+0  14874-3 0  9991
2 48787  87.9007 257.1318 0001175 109.6822 250.4435 13.15547608245673
ONEWEB-0214             
1 48788U 21045X   26178.50457001  .00000094  00000+0  21695-3 0  9991
2 48788  87.9008 257.1271 0001692  93.3335 266.7989 13.15549952245640
ONEWEB-0221             
1 48789U 21045Y   26178.51171293  .00000088  00000+0  19932-3 0  9993
2 48789  87.9006 257.1343 0001962 105.5928 254.5419 13.15548749245739
ONEWEB-0213             
1 48790U 21045Z   26178.50061883  .00000062  00000+0  13191-3 0  9990
2 48790  87.9005 257.1397 0001807 106.5814 253.5515 13.15547835245799
ONEWEB-0212             
1 48791U 21045AA  26178.47762014 -.00000074  00000+0 -23027-3 0  9995
2 48791  87.9009 257.1387 0002083  99.9167 260.2199 13.15551513245786
ONEWEB-0227             
1 48792U 21045AB  26178.47684617 -.00000131  00000+0 -38250-3 0  9996
2 48792  87.9007 257.1395 0002028 102.7658 257.3699 13.15549591245731
ONEWEB-0226             
1 48793U 21045AC  26178.47049856 -.00000121  00000+0 -35487-3 0  9995
2 48793  87.9003 257.1450 0001778 103.4623 256.6706 13.15547093245704
ONEWEB-0224             
1 48794U 21045AD  26178.51012802  .00000158  00000+0  38671-3 0  9998
2 48794  87.8998 257.1707 0002714 113.8023 246.3392 13.15548018245639
ONEWEB-0233             
1 48795U 21045AE  26178.51473338  .00001200  00000+0  31523-2 0  9991
2 48795  87.8998 257.1772 0001975 110.1908 249.9435 13.15556669245652
ONEWEB-0190             
1 48796U 21045AF  26178.50220213  .00000043  00000+0  80116-4 0  9991
2 48796  87.9000 257.1421 0001662 119.3124 240.8173 13.15547735245724
ONEWEB-0236             
1 48797U 21045AG  26178.51963793  .00000108  00000+0  25309-3 0  9994
2 48797  87.8997 257.1479 0002162  99.2640 260.8735 13.15549343245618
ONEWEB-0248             
1 48798U 21045AH  26178.45625303 -.00000002  00000+0 -39039-4 0  9991
2 48798  87.9008 257.1451 0002067 114.3130 245.8216 13.15548472245765
